GORIZONT 1 [-]          
1 11158U 78118A   22278.22747657 -.00000087  00000+0  00000+0 0  9996
2 11158  11.0782 201.0794 3453945 287.2171  38.4331  1.00308073109397
GORIZONT 2 [-]          
1 11440U 79062A   22278.78913988  .00000000  00000+0  00000+0 0  9996
2 11440   9.0340 300.5651 0003633 266.2660 153.3107  1.00288935124486
GORIZONT 3 [-]          
1 11648U 79105A   22278.84265275 -.00000061  00000+0  00000+0 0  9998
2 11648   9.1946 302.0086 0014080 215.9807 227.0358  1.00346105108944
GORIZONT 4 [-]          
1 11841U 80049A   22278.74285550 -.00000062  00000+0  00000+0 0  9990
2 11841  10.3480 307.8242 0000977 243.4044 125.7557  0.98629520220202
GORIZONT 5 [-]          
1 13092U 82020A   22279.08372241 -.00000001  00000+0  00000+0 0  9996
2 13092  11.3440 313.1218 0034467 213.8394 311.6545  0.98530152108279
GORIZONT 6 [-]          
1 13624U 82103A   22278.42362267  .00000076  00000+0  00000+0 0  9994
2 13624  10.2682 313.1725 0002491 206.7048 197.2571  1.00295371107404
GORIZONT 7 [-]          
1 14160U 83066A   22278.84771380 -.00000189  00000+0  00000+0 0  9991
2 14160  11.9358 322.5419 0008871 313.7997  47.5739  0.98349646141471
GORIZONT 8 [-]          
1 14532U 83118A   22278.63573473 -.00000027  00000+0  00000+0 0  9993
2 14532  12.1118 324.4005 0030390 151.5774   5.5831  0.98268887107235
GORIZONT 9 [-]          
1 14940U 84041A   22279.00813234 -.00000151  00000+0  00000+0 0  9994
2 14940  11.3023 322.4265 0004940 210.7131 283.6317  1.00223189108483
GORIZONT 10 [-]         
1 15144U 84078A   22278.35501341  .00000092  00000+0  00000+0 0  9994
2 15144  11.3996 323.4593 0000953 164.9610 212.2433  1.00225629141032
GORIZONT 11 [-]         
1 15484U 85007A   22278.85853060 -.00000350  00000+0  00000+0 0  9995
2 15484  11.5817 325.4361 0004350 159.4997 300.3133  1.00379334139092
GORIZONT 12 [-]         
1 16769U 86044A   22278.78701763  .00000041  00000+0  00000+0 0  9994
2 16769  12.2055 330.8140 0002053 211.5058 173.5240  1.00207318133727
GORIZONT 13 [-]         
1 17083U 86090A   22278.47638418 -.00000172  00000+0  00000+0 0  9993
2 17083  14.0883 337.9987 0012423 339.5370  42.1547  0.96727331105583
GORIZONT 14 [-]         
1 17969U 87040A   22278.78035469 -.00000117  00000+0  00000+0 0  9992
2 17969  13.0242 329.3884 0032235 175.5721 180.8960  0.97659063106662
GORIZONT 15 [-]         
1 19017U 88028A   22278.42393487 -.00000165  00000+0  00000+0 0  9996
2 19017  14.3803 340.8211 0038296 157.8342 218.6489  0.97828789106290
GORIZONT 16 [-]         
1 19397U 88071A   22278.63615300  .00000018  00000+0  00000+0 0  9995
2 19397  13.2308 339.5009 0013584  67.5420  74.8087  0.99967471124735
GORIZONT 17 [-]         
1 19765U 89004A   22278.99268177 -.00000266  00000+0  00000+0 0  9992
2 19765  13.7803 342.8472 0023858 135.1078 231.5638  0.99068900122197
GORIZONT 18 [-]         
1 20107U 89052A   22278.76785267  .00000076  00000+0  00000+0 0  9994
2 20107  13.8256 344.1074 0033132 318.7198  38.0241  0.99398453120987
GORIZONT 19 [-]         
1 20263U 89081A   22278.84074620 -.00000026  00000+0  00000+0 0  9998
2 20263  13.5551 343.2917 0004344 202.3666 194.5781  1.00351243 33802
GORIZONT 20 [-]         
1 20659U 90054A   22278.85568642 -.00000301  00000+0  00000+0 0  9998
2 20659  13.9942 346.1146 0007179 167.1100 265.3331  1.00257584118158
GORIZONT 21 [-]         
1 20923U 90094A   22278.14216088 -.00000286  00000+0  00000+0 0  9994
2 20923  14.0091 346.8909 0005463 196.6927 166.5895  1.00374931116905
GORIZONT 22 [-]         
1 20953U 90102A   22278.87632110 -.00000303  00000+0  00000+0 0  9995
2 20953  13.9675 347.2528 0002333  34.6032  88.8769  1.00265452116832
GORIZONT 23 [-]         
1 21533U 91046A   22278.87432171 -.00000286  00000+0  00000+0 0  9993
2 21533  14.7333 351.4056 0002736 302.5638 172.3696  0.98910602 33337
GORIZONT 24 [-]         
1 21759U 91074A   22278.88007139 -.00000254  00000+0  00000+0 0  9992
2 21759  14.8903 353.3119 0018030 223.3726 265.5326  0.98445590111661
GORIZONT 25 [-]         
1 21922U 92017A   22279.06000390 -.00000308  00000+0  00000+0 0  9995
2 21922  14.4319 352.6359 0029009  84.6556 273.9518  0.99854203111454
GORIZONT 26 [-]         
1 22041U 92043A   22278.85152043 -.00000042  00000+0  00000+0 0  9991
2 22041  14.6048 354.6441 0031096 233.7919 178.8301  0.99240114110071
GORIZONT 27 [-]         
1 22245U 92082A   22278.78663359  .00000038  00000+0  00000+0 0  9993
2 22245  14.5212 354.2343 0011047  14.0477 348.3847  1.00143152113595
GORIZONT 28 [-]         
1 22880U 93069A   22278.87246172 -.00000361  00000+0  00000+0 0  9994
2 22880  14.6666 358.0967 0035230 134.0153 332.5339  0.99657044105670
GORIZONT 29 [-]         
1 22907U 93072A   22278.99425139 -.00000172  00000+0  00000+0 0  9993
2 22907  14.5779 357.5551 0008676 348.1913  11.6866  1.00163198105689
GORIZONT 30 [-]         
1 23108U 94030A   22278.87716653 -.00000272  00000+0  00000+0 0  9994
2 23108  14.5916 358.4605 0002716 163.5731 313.2410  1.00271586103957
GORIZONT 31 [-]         
1 23775U 96005A   22278.49924951  .00000021  00000+0  00000+0 0  9999
2 23775  14.5111   4.6829 0018867 200.0336 180.1667  0.99897426 97562
GORIZONT 32 [-]         
1 23880U 96034A   22278.50961100  .00000088  00000+0  00000+0 0  9990
2 23880  14.4605   5.1983 0007878 358.7000  34.3354  1.00181962 96502
GORIZONT 33 [-]         
1 26372U 00029A   22279.09268066 -.00000224  00000+0  00000+0 0  9997
2 26372  13.1877  16.3941 0004258 105.8699 258.8818  1.00307381 81877
